NORAD_CAT_ID,OBJECT_NAME,OBJECT_TYPE,EPOCH,MEAN_MOTION,ECCENTRICITY,INCLINATION,RA_OF_ASC_NODE,ARG_OF_PERICENTER,MEAN_ANOMALY,BSTAR,MEAN_MOTION_DOT,MEAN_MOTION_DDOT,TLE_LINE0,TLE_LINE1,TLE_LINE2,SEMIMAJOR_AXIS,PERIOD,APOGEE,PERIGEE,DECAYED
54771.0,STARLINK-5451,PAYLOAD,2024-04-03 21:44:02,15.08838953,0.0001281,53.217,322.8212,90.9612,269.1527,0.00021457,3.129e-05,0.0,0 STARLINK-5451,1 54771U 22175P   24094.90558553  .00003129  00000-0  21457-3 0  9997,2 54771  53.2170 322.8212 0001281  90.9612 269.1527 15.08838953 73599,6917.884,95.438,540.635,538.862,0.0
54771.0,STARLINK-5451,PAYLOAD,2024-04-04 00:54:48,15.08841606,0.0001366,53.2174,322.2258,91.9486,268.1663,0.00020263,2.939e-05,0.0,0 STARLINK-5451,1 54771U 22175P   24095.03806466  .00002939  00000-0  20263-3 0  9993,2 54771  53.2174 322.2258 0001366  91.9486 268.1663 15.08841606 71453,6917.875,95.437,540.685,538.795,0.0
54771.0,STARLINK-5451,PAYLOAD,2024-04-04 21:34:49,15.0884383,0.0001378,53.2174,318.3601,90.7969,269.3181,0.00022291,3.262e-05,0.0,0 STARLINK-5451,1 54771U 22175P   24095.89918449  .00003262  00000-0  22291-3 0  9995,2 54771  53.2174 318.3601 0001378  90.7969 269.3181 15.08843830 73740,6917.869,95.437,540.687,538.78,0.0
54771.0,STARLINK-5451,PAYLOAD,2024-04-05 15:04:03,15.08844387,0.0001306,53.2172,315.0883,89.3457,270.7685,0.00018337,2.632e-05,0.0,0 STARLINK-5451,1 54771U 22175P   24096.62782254  .00002632  00000-0  18337-3 0  9996,2 54771  53.2172 315.0883 0001306  89.3457 270.7685 15.08844387 73856,6917.867,95.437,540.635,538.829,0.0
54771.0,STARLINK-5451,PAYLOAD,2024-04-05 21:25:36,15.08845863,0.0001309,53.2171,313.8991,88.7561,271.3581,0.0001752,2.502e-05,0.0,0 STARLINK-5451,1 54771U 22175P   24096.89278126  .00002502  00000-0  17520-3 0  9992,2 54771  53.2171 313.8991 0001309  88.7561 271.3581 15.08845863 71730,6917.862,95.437,540.633,538.822,0.0
54771.0,STARLINK-5451,PAYLOAD,2024-04-06 06:57:54,15.08852701,0.000131,53.2172,312.1151,88.0698,272.0444,0.00020931,3.046e-05,0.0,0 STARLINK-5451,1 54771U 22175P   24097.29021581  .00003046  00000-0  20931-3 0  9992,2 54771  53.2172 312.1151 0001310  88.0698 272.0444 15.08852701 73958,6917.842,95.437,540.613,538.8,0.0
54771.0,STARLINK-5451,PAYLOAD,2024-04-06 22:51:47,15.08830748,0.0001308,53.2171,309.1418,92.9603,267.1539,-7.4528e-05,-1.473e-05,0.0,0 STARLINK-5451,1 54771U 22175P   24097.95262817 -.00001473  00000-0 -74528-4 0  9990,2 54771  53.2171 309.1418 0001308  92.9603 267.1539 15.08830748 74055,6917.909,95.438,540.679,538.869,0.0
54771.0,STARLINK-5451,PAYLOAD,2024-04-07 06:48:42,15.08835392,0.0001641,53.2177,307.6583,100.902,259.2156,-2.147e-05,-6.3e-06,0.0,0 STARLINK-5451,1 54771U 22175P   24098.28382794 -.00000630  00000-0 -21470-4 0  9996,2 54771  53.2177 307.6583 0001641 100.9020 259.2156 15.08835392 74103,6917.894,95.438,540.895,538.624,0.0
54771.0,STARLINK-5451,PAYLOAD,2024-04-07 21:07:10,15.08837741,0.0001439,53.2168,304.9795,95.9643,264.1513,4.7791e-05,4.73e-06,0.0,0 STARLINK-5451,1 54771U 22175P   24098.87998779  .00000473  00000-0  47791-4 0  9994,2 54771  53.2168 304.9795 0001439  95.9643 264.1513 15.08837741 72039,6917.887,95.438,540.748,538.757,0.0
54771.0,STARLINK-5451,PAYLOAD,2024-04-07 22:42:34,15.08837388,0.0001387,53.2167,304.6819,94.5322,265.5829,4.9205e-05,4.95e-06,0.0,0 STARLINK-5451,1 54771U 22175P   24098.94622836  .00000495  00000-0  49205-4 0  9996,2 54771  53.2167 304.6819 0001387  94.5322 265.5829 15.08837388 74206,6917.888,95.438,540.713,538.794,0.0
54771.0,STARLINK-5451,PAYLOAD,2024-04-08 13:01:02,15.08848512,0.0001595,53.2157,302.0046,87.9853,272.1322,0.00026762,3.975e-05,0.0,0 STARLINK-5451,1 54771U 22175P   24099.54238427  .00003975  00000-0  26762-3 0  9990,2 54771  53.2157 302.0046 0001595  87.9853 272.1322 15.08848512 74297,6917.854,95.437,540.823,538.616,0.0
54771.0,STARLINK-5451,PAYLOAD,2024-04-08 22:33:21,15.0884037,0.0001257,53.2156,300.221,91.3648,268.7488,0.00014463,2.015e-05,0.0,0 STARLINK-5451,1 54771U 22175P   24099.93982858  .00002015  00000-0  14463-3 0  9996,2 54771  53.2156 300.2210 0001257  91.3648 268.7488 15.08840370 74350,6917.879,95.438,540.614,538.875,0.0
54771.0,STARLINK-5451,PAYLOAD,2024-04-09 06:30:16,15.08847686,0.0001669,53.2151,298.7323,83.512,276.6062,0.00021883,3.197e-05,0.0,0 STARLINK-5451,1 54771U 22175P   24100.27102624  .00003197  00000-0  21883-3 0  9997,2 54771  53.2151 298.7323 0001669  83.5120 276.6062 15.08847686 74405,6917.857,95.437,540.876,538.567,0.0
54771.0,STARLINK-5451,PAYLOAD,2024-04-09 22:24:08,15.08840657,0.0001445,53.2172,295.7603,82.7193,277.3963,1.687e-05,-1.9e-07,0.0,0 STARLINK-5451,1 54771U 22175P   24100.93342958 -.00000019  00000-0  16870-4 0  9998,2 54771  53.2172 295.7603 0001445  82.7193 277.3963 15.08840657 74509,6917.878,95.438,540.743,538.744,0.0
54771.0,STARLINK-5451,PAYLOAD,2024-04-10 06:21:03,15.08844193,0.0001515,53.2179,294.2742,81.6007,278.5157,0.00010314,1.354e-05,0.0,0 STARLINK-5451,1 54771U 22175P   24101.26462774  .00001354  00000-0  10314-3 0  9992,2 54771  53.2179 294.2742 0001515  81.6007 278.5157 15.08844193 72396,6917.868,95.437,540.781,538.685,0.0
54771.0,STARLINK-5451,PAYLOAD,2024-04-10 19:04:09,15.0883881,0.0001627,53.2199,291.8963,80.1899,279.9277,4.355e-05,4.05e-06,0.0,0 STARLINK-5451,1 54771U 22175P   24101.79455103  .00000405  00000-0  43550-4 0  9993,2 54771  53.2199 291.8963 0001627  80.1899 279.9277 15.08838810 72479,6917.884,95.438,540.875,538.623,0.0
54771.0,STARLINK-5451,PAYLOAD,2024-04-10 22:14:55,15.08839121,0.0001325,53.2172,291.2974,100.3645,259.7496,-3.1639e-06,-3.38e-06,0.0,0 STARLINK-5451,1 54771U 22175P   24101.92702998 -.00000338  00000-0 -31639-5 0  9998,2 54771  53.2172 291.2974 0001325 100.3645 259.7496 15.08839121 74652,6917.883,95.438,540.665,538.831,0.0
54771.0,STARLINK-5451,PAYLOAD,2024-04-11 06:11:50,15.08844391,0.0001813,53.2152,289.8119,86.5336,273.5863,6.6721e-05,7.74e-06,0.0,0 STARLINK-5451,1 54771U 22175P   24102.25822891  .00000774  00000-0  66721-4 0  9991,2 54771  53.2152 289.8119 0001813  86.5336 273.5863 15.08844391 74701,6917.867,95.437,540.986,538.478,0.0
54771.0,STARLINK-5451,PAYLOAD,2024-04-11 18:54:56,15.08836669,0.000157,53.2166,287.4331,89.3626,270.7546,8.7645e-05,1.107e-05,0.0,0 STARLINK-5451,1 54771U 22175P   24102.78815400  .00001107  00000-0  87645-4 0  9996,2 54771  53.2166 287.4331 0001570  89.3626 270.7546 15.08836669 74783,6917.891,95.438,540.842,538.669,0.0
54771.0,STARLINK-5451,PAYLOAD,2024-04-11 22:05:42,15.08837032,0.0001498,53.217,286.8384,90.9072,269.2092,4.0642e-05,3.59e-06,0.0,0 STARLINK-5451,1 54771U 22175P   24102.92063377  .00000359  00000-0  40642-4 0  9994,2 54771  53.2170 286.8384 0001498  90.9072 269.2092 15.08837032 72648,6917.889,95.438,540.791,538.718,0.0
54771.0,STARLINK-5451,PAYLOAD,2024-04-12 21:56:29,15.08844228,0.0001365,53.2168,282.3761,92.3151,267.7997,0.00014778,2.065e-05,0.0,0 STARLINK-5451,1 54771U 22175P   24103.91423140  .00002065  00000-0  14778-3 0  9998,2 54771  53.2168 282.3761 0001365  92.3151 267.7997 15.08844228 74950,6917.867,95.437,540.677,538.788,0.0
54771.0,STARLINK-5451,PAYLOAD,2024-04-13 12:14:58,15.08840407,0.0001456,53.2168,279.6991,94.3434,265.7724,0.00016625,2.359e-05,0.0,0 STARLINK-5451,1 54771U 22175P   24104.51039380  .00002359  00000-0  16625-3 0  9993,2 54771  53.2168 279.6991 0001456  94.3434 265.7724 15.08840407 72882,6917.879,95.438,540.751,538.737,0.0
54771.0,STARLINK-5451,PAYLOAD,2024-04-13 18:36:30,15.08841098,0.0001281,53.2165,278.5075,90.7154,269.3985,0.00010462,1.378e-05,0.0,0 STARLINK-5451,1 54771U 22175P   24104.77535322  .00001378  00000-0  10462-3 0  9991,2 54771  53.2165 278.5075 0001281  90.7154 269.3985 15.08841098 75086,6917.877,95.437,540.628,538.856,0.0
54771.0,STARLINK-5451,PAYLOAD,2024-04-14 16:51:54,15.08840656,0.0001313,53.2164,274.3442,93.2154,266.8989,4.9651e-05,5.02e-06,0.0,0 STARLINK-5451,1 54771U 22175P   24105.70271364  .00000502  00000-0  49651-4 0  9999,2 54771  53.2164 274.3442 0001313  93.2154 266.8989 15.08840656 73062,6917.878,95.438,540.652,538.835,0.0
54771.0,STARLINK-5451,PAYLOAD,2024-04-15 10:21:09,15.08838485,0.000132,53.2167,271.0759,93.909,266.2053,5.7297e-05,6.24e-06,0.0,0 STARLINK-5451,1 54771U 22175P   24106.43135572  .00000624  00000-0  57297-4 0  9990,2 54771  53.2167 271.0759 0001320  93.9090 266.2053 15.08838485 75339,6917.885,95.438,540.663,538.837,0.0
54771.0,STARLINK-5451,PAYLOAD,2024-04-16 03:50:22,15.08858847,4.41e-05,53.2175,267.8047,68.5604,291.5435,0.00033186,5.001e-05,0.0,0 STARLINK-5451,1 54771U 22175P   24107.15998165  .00005001  00000-0  33186-3 0  9999,2 54771  53.2175 267.8047 0000441  68.5604 291.5435 15.08858847 73284,6917.823,95.436,539.993,539.383,0.0
54771.0,STARLINK-5451,PAYLOAD,2024-04-16 18:08:51,15.0885593,0.0001381,53.2172,265.1278,75.2387,284.8758,0.00028436,4.242e-05,0.0,0 STARLINK-5451,1 54771U 22175P   24107.75614651  .00004242  00000-0  28436-3 0  9998,2 54771  53.2172 265.1278 0001381  75.2387 284.8758 15.08855930 73378,6917.832,95.437,540.652,538.741,0.0
54771.0,STARLINK-5451,PAYLOAD,2024-04-17 10:02:43,15.08842927,0.000169,53.2163,262.1578,85.7195,274.399,7.95e-05,9.78e-06,0.0,0 STARLINK-5451,1 54771U 22175P   24108.41855424  .00000978  00000-0  79500-4 0  9998,2 54771  53.2163 262.1578 0001690  85.7195 274.3990 15.08842927 73479,6917.871,95.437,540.906,538.567,0.0
54771.0,STARLINK-5451,PAYLOAD,2024-04-17 14:48:52,15.08834563,0.0001474,53.2157,261.2656,105.4477,254.6678,-2.6788e-05,-7.14e-06,0.0,0 STARLINK-5451,1 54771U 22175P   24108.61727693 -.00000714  00000-0 -26788-4 0  9996,2 54771  53.2157 261.2656 0001474 105.4477 254.6678 15.08834563 75666,6917.897,95.438,540.782,538.742,0.0
54771.0,STARLINK-5451,PAYLOAD,2024-04-17 16:24:15,15.08834902,0.0001175,53.2157,260.9683,103.1191,256.9933,-6.9334e-05,-1.391e-05,0.0,0 STARLINK-5451,1 54771U 22175P   24108.68351547 -.00001391  00000-0 -69334-4 0  9990,2 54771  53.2157 260.9683 0001175 103.1191 256.9933 15.08834902 75675,6917.896,95.438,540.574,538.948,0.0
